NORAD_CAT_ID,OBJECT_NAME,OBJECT_TYPE,EPOCH,MEAN_MOTION,ECCENTRICITY,INCLINATION,RA_OF_ASC_NODE,ARG_OF_PERICENTER,MEAN_ANOMALY,BSTAR,MEAN_MOTION_DOT,MEAN_MOTION_DDOT,TLE_LINE0,TLE_LINE1,TLE_LINE2,SEMIMAJOR_AXIS,PERIOD,APOGEE,PERIGEE,DECAYED
53896.0,STARLINK-5037,PAYLOAD,2023-11-15 20:12:57,15.08841952,9.41e-05,53.2167,156.6236,81.6494,278.4605,1.3281e-05,-7.6e-07,0.0,0 STARLINK-5037,1 53896U 22119L   23319.84233183 -.00000076  00000-0  13281-4 0  9999,2 53896  53.2167 156.6236 0000941  81.6494 278.4605 15.08841952 64142,6917.874,95.437,540.39,539.088,0.0
53896.0,STARLINK-5037,PAYLOAD,2023-11-15 23:23:43,15.08841927,0.0001309,53.2187,156.0295,87.8171,272.2971,4.8844e-05,4.9e-06,0.0,0 STARLINK-5037,1 53896U 22119L   23319.97481053  .00000490  00000-0  48844-4 0  9996,2 53896  53.2187 156.0295 0001309  87.8171 272.2971 15.08841927 63747,6917.874,95.437,540.645,538.834,0.0
53896.0,STARLINK-5037,PAYLOAD,2023-11-16 20:03:45,15.08821054,0.0002023,53.2179,152.1645,93.0584,267.064,0.00022594,3.308e-05,0.0,0 STARLINK-5037,1 53896U 22119L   23320.83594041  .00003308  00000-0  22594-3 0  9999,2 53896  53.2179 152.1645 0002023  93.0584 267.0640 15.08821054 64290,6917.938,95.439,541.203,538.404,0.0
53896.0,STARLINK-5037,PAYLOAD,2023-11-17 05:36:03,15.08834539,0.0001386,53.2176,150.3805,89.1676,270.9475,6.1033e-05,6.83e-06,0.0,0 STARLINK-5037,1 53896U 22119L   23321.23337886  .00000683  00000-0  61033-4 0  9991,2 53896  53.2176 150.3805 0001386  89.1676 270.9475 15.08834539 64352,6917.897,95.438,540.721,538.803,0.0
53896.0,STARLINK-5037,PAYLOAD,2023-11-17 19:54:32,15.08837574,0.000125,53.2166,147.7031,80.9503,279.1631,5.1185e-05,5.27e-06,0.0,0 STARLINK-5037,1 53896U 22119L   23321.82953865  .00000527  00000-0  51185-4 0  9991,2 53896  53.2166 147.7031 0001250  80.9503 279.1631 15.08837574 64021,6917.888,95.438,540.618,538.888,0.0
53896.0,STARLINK-5037,PAYLOAD,2023-11-17 21:29:55,15.08836576,0.0001356,53.2169,147.4071,90.5366,269.5781,4.2497e-05,3.88e-06,0.0,0 STARLINK-5037,1 53896U 22119L   23321.89577947  .00000388  00000-0  42497-4 0  9992,2 53896  53.2169 147.4071 0001356  90.5366 269.5781 15.08836576 64453,6917.891,95.438,540.694,538.818,0.0
53896.0,STARLINK-5037,PAYLOAD,2023-11-18 11:48:23,15.08838722,0.0001341,53.2184,144.7312,87.8877,272.2269,8.8047e-05,1.114e-05,0.0,0 STARLINK-5037,1 53896U 22119L   23322.49193869  .00001114  00000-0  88047-4 0  9995,2 53896  53.2184 144.7312 0001341  87.8877 272.2269 15.08838722 64545,6917.884,95.438,540.677,538.822,0.0
53896.0,STARLINK-5037,PAYLOAD,2023-11-19 11:39:10,15.08840727,0.0001372,53.2162,140.2703,87.1791,272.9359,8.2262e-05,1.022e-05,0.0,0 STARLINK-5037,1 53896U 22119L   23323.48553776  .00001022  00000-0  82262-4 0  9993,2 53896  53.2162 140.2703 0001372  87.1791 272.9359 15.08840727 64273,6917.878,95.438,540.692,538.794,0.0
53896.0,STARLINK-5037,PAYLOAD,2023-11-19 21:11:29,15.08842265,0.0001373,53.2164,138.4862,86.9909,273.124,7.2023e-05,8.59e-06,0.0,0 STARLINK-5037,1 53896U 22119L   23323.88297636  .00000859  00000-0  72023-4 0  9998,2 53896  53.2164 138.4862 0001373  86.9909 273.1240 15.08842265 64753,6917.873,95.437,540.688,538.789,0.0
53896.0,STARLINK-5037,PAYLOAD,2023-11-20 11:29:57,15.08843108,0.0001398,53.2164,135.8099,86.912,273.2033,4.0595e-05,3.58e-06,0.0,0 STARLINK-5037,1 53896U 22119L   23324.47913674  .00000358  00000-0  40595-4 0  9994,2 53896  53.2164 135.8099 0001398  86.9120 273.2033 15.08843108 64846,6917.871,95.437,540.703,538.769,0.0
53896.0,STARLINK-5037,PAYLOAD,2023-11-20 17:51:29,15.08854306,0.0001405,53.2164,134.6199,87.7493,272.366,-7.0775e-05,-1.415e-05,0.0,0 STARLINK-5037,1 53896U 22119L   23324.74409181 -.00001415  00000-0 -70775-4 0  9997,2 53896  53.2164 134.6199 0001405  87.7493 272.3660 15.08854306 64461,6917.837,95.437,540.674,538.73,0.0
53896.0,STARLINK-5037,PAYLOAD,2023-11-21 11:20:44,15.08842911,0.0001424,53.2166,131.3486,89.7345,270.381,1.0176e-06,-2.72e-06,0.0,0 STARLINK-5037,1 53896U 22119L   23325.47273626 -.00000272  00000-0  10176-5 0  9990,2 53896  53.2166 131.3486 0001424  89.7345 270.3810 15.08842911 64571,6917.871,95.437,540.722,538.751,0.0
53896.0,STARLINK-5037,PAYLOAD,2023-11-21 19:17:39,15.08845327,0.0001408,53.2165,129.8615,93.1929,266.9224,6.6335e-05,7.68e-06,0.0,0 STARLINK-5037,1 53896U 22119L   23325.80393279  .00000768  00000-0  66335-4 0  9990,2 53896  53.2165 129.8615 0001408  93.1929 266.9224 15.08845327 65042,6917.864,95.437,540.703,538.755,0.0
53896.0,STARLINK-5037,PAYLOAD,2023-11-22 14:22:17,15.08848447,0.0001406,53.2166,126.2933,93.8898,266.2255,8.418e-05,1.052e-05,0.0,0 STARLINK-5037,1 53896U 22119L   23326.59880871  .00001052  00000-0  84180-4 0  9991,2 53896  53.2166 126.2933 0001406  93.8898 266.2255 15.08848447 65163,6917.855,95.437,540.692,538.747,0.0
53896.0,STARLINK-5037,PAYLOAD,2023-11-22 17:33:03,15.08849689,0.0001437,53.217,125.6986,96.1475,263.9681,0.00010761,1.426e-05,0.0,0 STARLINK-5037,1 53896U 22119L   23326.73128682  .00001426  00000-0  10761-3 0  9990,2 53896  53.2170 125.6986 0001437  96.1475 263.9681 15.08849689 64761,6917.851,95.437,540.71,538.722,0.0
53896.0,STARLINK-5037,PAYLOAD,2023-11-23 11:02:18,15.08838279,0.0001408,53.2167,122.4274,85.0218,275.0935,2.1178e-05,4.9e-07,0.0,0 STARLINK-5037,1 53896U 22119L   23327.45993765  .00000049  00000-0  21178-4 0  9997,2 53896  53.2167 122.4274 0001408  85.0218 275.0935 15.08838279 64873,6917.886,95.438,540.725,538.777,0.0
53896.0,STARLINK-5037,PAYLOAD,2023-11-23 14:13:04,15.08837379,0.0001471,53.2168,121.8325,104.3721,255.7435,9.3932e-06,-1.38e-06,0.0,0 STARLINK-5037,1 53896U 22119L   23327.59241791 -.00000138  00000-0  93932-5 0  9995,2 53896  53.2168 121.8325 0001471 104.3721 255.7435 15.08837379 65318,6917.888,95.438,540.771,538.736,0.0
53896.0,STARLINK-5037,PAYLOAD,2023-11-23 17:23:51,15.08837668,0.0001409,53.2174,121.237,106.1243,253.9905,6.5455e-06,-1.84e-06,0.0,0 STARLINK-5037,1 53896U 22119L   23327.72489773 -.00000184  00000-0  65455-5 0  9994,2 53896  53.2174 121.2370 0001409 106.1243 253.9905 15.08837668 65334,6917.888,95.438,540.727,538.778,0.0
53896.0,STARLINK-5037,PAYLOAD,2023-11-24 14:03:52,15.08835061,0.0001351,53.2183,117.3729,107.0931,253.021,-6.2088e-05,-1.276e-05,0.0,0 STARLINK-5037,1 53896U 22119L   23328.58602443 -.00001276  00000-0 -62088-4 0  9992,2 53896  53.2183 117.3729 0001351 107.0931 253.0210 15.08835061 65467,6917.895,95.438,540.695,538.826,0.0
53896.0,STARLINK-5037,PAYLOAD,2023-11-24 18:50:02,15.08828594,0.0001204,53.2174,116.4811,98.1905,261.9224,-9.5088e-05,-1.8e-05,0.0,0 STARLINK-5037,1 53896U 22119L   23328.78475079 -.00001800  00000-0 -95088-4 0  9996,2 53896  53.2174 116.4811 0001204  98.1905 261.9224 15.08828594 65070,6917.915,95.438,540.613,538.947,0.0
53896.0,STARLINK-5037,PAYLOAD,2023-11-25 13:54:39,15.08833653,0.000101,53.2173,112.9133,72.5221,287.5881,9.4251e-05,1.212e-05,0.0,0 STARLINK-5037,1 53896U 22119L   23329.57962798  .00001212  00000-0  94251-4 0  9999,2 53896  53.2173 112.9133 0001010  72.5221 287.5881 15.08833653 65614,6917.9,95.438,540.463,539.066,0.0
53896.0,STARLINK-5037,PAYLOAD,2023-11-25 20:16:11,15.0885184,0.0001117,53.2173,111.723,91.2177,268.8943,0.00022437,3.286e-05,0.0,0 STARLINK-5037,1 53896U 22119L   23329.84457362  .00003286  00000-0  22437-3 0  9994,2 53896  53.2173 111.7230 0001117  91.2177 268.8943 15.08851840 65658,6917.844,95.437,540.482,538.936,0.0
53896.0,STARLINK-5037,PAYLOAD,2023-11-26 13:45:26,15.08842512,0.0001135,53.2171,108.4517,88.9908,271.1215,0.00020085,2.91e-05,0.0,0 STARLINK-5037,1 53896U 22119L   23330.57321760  .00002910  00000-0  20085-3 0  9998,2 53896  53.2171 108.4517 0001135  88.9908 271.1215 15.08842512 65769,6917.873,95.437,540.523,538.953,0.0
53896.0,STARLINK-5037,PAYLOAD,2023-11-26 16:56:12,15.08844151,0.0001167,53.2173,107.8572,86.2214,273.8912,0.00020497,2.976e-05,0.0,0 STARLINK-5037,1 53896U 22119L   23330.70569610  .00002976  00000-0  20497-3 0  9990,2 53896  53.2173 107.8572 0001167  86.2214 273.8912 15.08844151 65361,6917.868,95.437,540.54,538.925,0.0
53896.0,STARLINK-5037,PAYLOAD,2023-11-27 08:50:04,15.08839199,0.0001137,53.2187,104.8867,93.4355,266.6767,-4.3097e-05,-9.74e-06,0.0,0 STARLINK-5037,1 53896U 22119L   23331.36810743 -.00000974  00000-0 -43097-4 0  9999,2 53896  53.2187 104.8867 0001137  93.4355 266.6767 15.08839199 65468,6917.883,95.438,540.534,538.961,0.0
53896.0,STARLINK-5037,PAYLOAD,2023-11-27 13:36:13,15.08842052,0.0001153,53.2182,103.9909,104.7962,255.3158,-9.8548e-05,-1.856e-05,0.0,0 STARLINK-5037,1 53896U 22119L   23331.56682768 -.00001856  00000-0 -98548-4 0  9996,2 53896  53.2182 103.9909 0001153 104.7962 255.3158 15.08842052 65919,6917.874,95.437,540.537,538.941,0.0
53896.0,STARLINK-5037,PAYLOAD,2023-11-27 16:47:00,15.08843113,0.0001266,53.2177,103.396,89.2299,270.8838,-7.8063e-05,-1.53e-05,0.0,0 STARLINK-5037,1 53896U 22119L   23331.69930720 -.00001530  00000-0 -78063-4 0  9993,2 53896  53.2177 103.3960 0001266  89.2299 270.8838 15.08843113 65937,6917.871,95.437,540.612,538.86,0.0
53896.0,STARLINK-5037,PAYLOAD,2023-11-28 13:27:00,15.08847205,0.0001201,53.2186,99.5312,94.8197,265.2933,3.1902e-06,-2.37e-06,0.0,0 STARLINK-5037,1 53896U 22119L   23332.56041962 -.00000237  00000-0  31902-5 0  9995,2 53896  53.2186  99.5312 0001201  94.8197 265.2933 15.08847205 66067,6917.858,95.437,540.554,538.893,0.0
53896.0,STARLINK-5037,PAYLOAD,2023-11-28 18:13:08,15.08856016,0.0001312,53.2175,98.6377,104.8278,255.2859,9.122e-05,1.165e-05,0.0,0 STARLINK-5037,1 53896U 22119L   23332.75913053  .00001165  00000-0  91220-4 0  9993,2 53896  53.2175  98.6377 0001312 104.8278 255.2859 15.08856016 65673,6917.831,95.437,540.604,538.789,0.0
53896.0,STARLINK-5037,PAYLOAD,2023-11-29 11:42:24,15.08838918,0.0001368,53.218,95.3673,115.83,244.2833,7.9809e-05,9.82e-06,0.0,0 STARLINK-5037,1 53896U 22119L   23333.48778298  .00000982  00000-0  79809-4 0  9999,2 53896  53.2180  95.3673 0001368 115.8300 244.2833 15.08838918 65784,6917.884,95.438,540.695,538.802,0.0
